start=new Date('2023-06-20T00:00:00.000Z').valueOf();
sats=[{"MEAN_MOTION":"15.71361382","SEMIMAJOR_AXIS":"6733.142","REF_FRAME":"TEME","RCS_SIZE":"LARGE","NORAD_CAT_ID":"56511","OBJECT_TYPE":"PAYLOAD","MEAN_ANOMALY":"87.0730","APOAPSIS":"356.254","TLE_LINE2":"2 56511  42.9987 224.9634 0001852 272.9926  87.0730 15.71361382  6932","CENTER_NAME":"EARTH","ECCENTRICITY":"0.00018520","LAUNCH_DATE":"2023-05-14","TLE_LINE1":"1 56511U 23065J   23170.56748900  .00002377  00000-0  21564-4 0  9997","SITE":"AFETR","OBJECT_ID":"2023-065J","MEAN_MOTION_DOT":"0.00002377","EPOCH":"2023-06-19T13:37:11.049600","FILE":"3937509","INCLINATION":"42.9987","REV_AT_EPOCH":"693","ELEMENT_SET_NO":"999","TIME_SYSTEM":"UTC","OBJECT_NAME":"STARLINK-5351","GP_ID":"234322149","EPHEMERIS_TYPE":"0","BSTAR":"0.00002156400000","RA_OF_ASC_NODE":"224.9634","CLASSIFICATION_TYPE":"U","PERIOD":"91.640","MEAN_ELEMENT_THEORY":"SGP4","COUNTRY_CODE":"US","PERIAPSIS":"353.760","MEAN_MOTION_DDOT":"0.0000000000000","DECAY_DATE":null,"ARG_OF_PERICENTER":"272.9926"},{"MEAN_MOTION":"15.71359700","REF_FRAME":"TEME","SEMIMAJOR_AXIS":"6733.147","RCS_SIZE":"LARGE","NORAD_CAT_ID":"56512","OBJECT_TYPE":"PAYLOAD","MEAN_ANOMALY":"84.5670","TLE_LINE2":"2 56512  42.9981 224.9630 0001255 275.5055  84.5670 15.71359700  6938","APOAPSIS":"355.857","TLE_LINE1":"1 56512U 23065K   23170.56780487  .00000173  00000-0  47622-5 0  9990","LAUNCH_DATE":"2023-05-14","ECCENTRICITY":"0.00012550","CENTER_NAME":"EARTH","SITE":"AFETR","MEAN_MOTION_DOT":"0.00000173","OBJECT_ID":"2023-065K","REV_AT_EPOCH":"693","ELEMENT_SET_NO":"999","INCLINATION":"42.9981","EPOCH":"2023-06-19T13:37:38.340768","FILE":"3937509","EPHEMERIS_TYPE":"0","GP_ID":"234322448","TIME_SYSTEM":"UTC","OBJECT_NAME":"STARLINK-5349","BSTAR":"0.00000476220000","PERIOD":"91.640","CLASSIFICATION_TYPE":"U","RA_OF_ASC_NODE":"224.9630","MEAN_ELEMENT_THEORY":"SGP4","COUNTRY_CODE":"US","ARG_OF_PERICENTER":"275.5055","DECAY_DATE":null,"MEAN_MOTION_DDOT":"0.0000000000000","PERIAPSIS":"354.167"},{"OBJECT_ID":"2023-065L","MEAN_MOTION_DOT":"0.00000440","EPOCH":"2023-06-19T13:36:53.081856","FILE":"3937509","REV_AT_EPOCH":"693","ELEMENT_SET_NO":"999","INCLINATION":"42.9970","GP_ID":"234322326","OBJECT_NAME":"STARLINK-5329","TIME_SYSTEM":"UTC","EPHEMERIS_TYPE":"0","BSTAR":"0.00000679850000","PERIOD":"91.641","RA_OF_ASC_NODE":"224.9600","CLASSIFICATION_TYPE":"U","COUNTRY_CODE":"US","MEAN_ELEMENT_THEORY":"SGP4","MEAN_MOTION_DDOT":"0.0000000000000","PERIAPSIS":"354.092","ARG_OF_PERICENTER":"279.6932","DECAY_DATE":null,"MEAN_MOTION":"15.71355630","REF_FRAME":"TEME","SEMIMAJOR_AXIS":"6733.159","NORAD_CAT_ID":"56513","RCS_SIZE":"LARGE","OBJECT_TYPE":"PAYLOAD","MEAN_ANOMALY":"80.3780","APOAPSIS":"355.956","TLE_LINE2":"2 56513  42.9970 224.9600 0001384 279.6932  80.3780 15.71355630  6930","ECCENTRICITY":"0.00013840","CENTER_NAME":"EARTH","LAUNCH_DATE":"2023-05-14","TLE_LINE1":"1 56513U 23065L   23170.56728104  .00000440  00000-0  67985-5 0  9990","SITE":"AFETR"},{"PERIAPSIS":"342.468","MEAN_MOTION_DDOT":"0.0000000000000","DECAY_DATE":null,"ARG_OF_PERICENTER":"37.3702","MEAN_ELEMENT_THEORY":"SGP4","COUNTRY_CODE":"US","RA_OF_ASC_NODE":"222.6735","CLASSIFICATION_TYPE":"U","PERIOD":"91.421","BSTAR":"0.00051033000000","TIME_SYSTEM":"UTC","OBJECT_NAME":"STARLINK-5343","GP_ID":"234322507","EPHEMERIS_TYPE":"0","FILE":"3937509","EPOCH":"2023-06-19T20:06:55.809216","INCLINATION":"42.9995","REV_AT_EPOCH":"698","ELEMENT_SET_NO":"999","OBJECT_ID":"2023-065M","MEAN_MOTION_DOT":"0.00078997","SITE":"AFETR","CENTER_NAME":"EARTH","ECCENTRICITY":"0.00026410","LAUNCH_DATE":"2023-05-14","TLE_LINE1":"1 56514U 23065M   23170.83814594  .00078997  00000-0  51033-3 0  9997","APOAPSIS":"346.019","TLE_LINE2":"2 56514  42.9995 222.6735 0002641  37.3702 322.7351 15.75136925  6983","OBJECT_TYPE":"PAYLOAD","MEAN_ANOMALY":"322.7351","RCS_SIZE":"LARGE","NORAD_CAT_ID":"56514","REF_FRAME":"TEME","SEMIMAJOR_AXIS":"6722.379","MEAN_MOTION":"15.75136925"},{"ECCENTRICITY":"0.00016190","CENTER_NAME":"EARTH","LAUNCH_DATE":"2023-05-14","TLE_LINE1":"1 56515U 23065N   23170.44005022  .00003859  00000-0  32865-4 0  9991","SITE":"AFETR","APOAPSIS":"356.130","TLE_LINE2":"2 56515  42.9998 225.7264 0001619 271.7210  88.3472 15.71350015  6916","RCS_SIZE":"LARGE","NORAD_CAT_ID":"56515","OBJECT_TYPE":"PAYLOAD","MEAN_ANOMALY":"88.3472","MEAN_MOTION":"15.71350015","REF_FRAME":"TEME","SEMIMAJOR_AXIS":"6733.175","MEAN_MOTION_DDOT":"0.0000000000000","PERIAPSIS":"353.950","ARG_OF_PERICENTER":"271.7210","DECAY_DATE":null,"PERIOD":"91.641","CLASSIFICATION_TYPE":"U","RA_OF_ASC_NODE":"225.7264","MEAN_ELEMENT_THEORY":"SGP4","COUNTRY_CODE":"US","GP_ID":"234291282","OBJECT_NAME":"STARLINK-5348","TIME_SYSTEM":"UTC","EPHEMERIS_TYPE":"0","BSTAR":"0.00003286500000","OBJECT_ID":"2023-065N","MEAN_MOTION_DOT":"0.00003859","FILE":"3937338","EPOCH":"2023-06-19T10:33:40.339008","REV_AT_EPOCH":"691","ELEMENT_SET_NO":"999","INCLINATION":"42.9998"},{"REF_FRAME":"TEME","SEMIMAJOR_AXIS":"6733.145","MEAN_MOTION":"15.71360414","MEAN_ANOMALY":"101.9354","OBJECT_TYPE":"PAYLOAD","RCS_SIZE":"LARGE","NORAD_CAT_ID":"56516","APOAPSIS":"355.914","TLE_LINE2":"2 56516  42.9977 224.9612 0001342 258.1364 101.9354 15.71360414  6931","SITE":"AFETR","ECCENTRICITY":"0.00013420","CENTER_NAME":"EARTH","TLE_LINE1":"1 56516U 23065P   23170.56738558  .00002085  00000-0  19338-4 0  9992","LAUNCH_DATE":"2023-05-14","EPOCH":"2023-06-19T13:37:02.114112","FILE":"3937509","INCLINATION":"42.9977","REV_AT_EPOCH":"693","ELEMENT_SET_NO":"999","OBJECT_ID":"2023-065P","MEAN_MOTION_DOT":"0.00002085","BSTAR":"0.00001933800000","TIME_SYSTEM":"UTC","OBJECT_NAME":"STARLINK-5342","GP_ID":"234322208","EPHEMERIS_TYPE":"0","COUNTRY_CODE":"US","MEAN_ELEMENT_THEORY":"SGP4","RA_OF_ASC_NODE":"224.9612","CLASSIFICATION_TYPE":"U","PERIOD":"91.640","PERIAPSIS":"354.106","MEAN_MOTION_DDOT":"0.0000000000000","DECAY_DATE":null,"ARG_OF_PERICENTER":"258.1364"},{"RCS_SIZE":"LARGE","NORAD_CAT_ID":"56517","MEAN_ANOMALY":"88.8599","OBJECT_TYPE":"PAYLOAD","MEAN_MOTION":"15.71361395","SEMIMAJOR_AXIS":"6733.142","REF_FRAME":"TEME","ECCENTRICITY":"0.00021090","CENTER_NAME":"EARTH","TLE_LINE1":"1 56517U 23065Q   23170.56685525  .00002008  00000-0  18752-4 0  9992","LAUNCH_DATE":"2023-05-14","SITE":"AFETR","APOAPSIS":"356.427","TLE_LINE2":"2 56517  43.0008 224.9577 0002109 271.2028  88.8599 15.71361395  6937","TIME_SYSTEM":"UTC","OBJECT_NAME":"STARLINK-5345","GP_ID":"234322567","EPHEMERIS_TYPE":"0","BSTAR":"0.00001875200000","OBJECT_ID":"2023-065Q","MEAN_MOTION_DOT":"0.00002008","FILE":"3937509","EPOCH":"2023-06-19T13:36:16.293600","INCLINATION":"43.0008","REV_AT_EPOCH":"693","ELEMENT_SET_NO":"999","PERIAPSIS":"353.587","MEAN_MOTION_DDOT":"0.0000000000000","DECAY_DATE":null,"ARG_OF_PERICENTER":"271.2028","CLASSIFICATION_TYPE":"U","RA_OF_ASC_NODE":"224.9577","PERIOD":"91.640","MEAN_ELEMENT_THEORY":"SGP4","COUNTRY_CODE":"US"},{"FILE":"3937509","EPOCH":"2023-06-19T13:36:35.690400","ELEMENT_SET_NO":"999","REV_AT_EPOCH":"693","INCLINATION":"42.9988","OBJECT_ID":"2023-065R","MEAN_MOTION_DOT":"-0.00000801","BSTAR":"-0.00000267210000","GP_ID":"234322267","TIME_SYSTEM":"UTC","OBJECT_NAME":"STARLINK-5346","EPHEMERIS_TYPE":"0","MEAN_ELEMENT_THEORY":"SGP4","COUNTRY_CODE":"US","PERIOD":"91.641","CLASSIFICATION_TYPE":"U","RA_OF_ASC_NODE":"224.9585","MEAN_MOTION_DDOT":"0.0000000000000","PERIAPSIS":"354.288","ARG_OF_PERICENTER":"271.3186","DECAY_DATE":null,"SEMIMAJOR_AXIS":"6733.189","REF_FRAME":"TEME","MEAN_MOTION":"15.71345142","MEAN_ANOMALY":"88.7551","OBJECT_TYPE":"PAYLOAD","RCS_SIZE":"LARGE","NORAD_CAT_ID":"56518","APOAPSIS":"355.819","TLE_LINE2":"2 56518  42.9988 224.9585 0001137 271.3186  88.7551 15.71345142  6937","SITE":"AFETR","ECCENTRICITY":"0.00011370","CENTER_NAME":"EARTH","LAUNCH_DATE":"2023-05-14","TLE_LINE1":"1 56518U 23065R   23170.56707975 -.00000801  00000-0 -26721-5 0  9994"},{"PERIOD":"91.640","CLASSIFICATION_TYPE":"U","RA_OF_ASC_NODE":"224.9554","MEAN_ELEMENT_THEORY":"SGP4","COUNTRY_CODE":"US","MEAN_MOTION_DDOT":"0.0000000000000","PERIAPSIS":"353.778","ARG_OF_PERICENTER":"270.9190","DECAY_DATE":null,"OBJECT_ID":"2023-065S","MEAN_MOTION_DOT":"0.00002066","FILE":"3937509","EPOCH":"2023-06-19T13:35:58.199712","ELEMENT_SET_NO":"999","REV_AT_EPOCH":"693","INCLINATION":"42.9978","GP_ID":"234322150","TIME_SYSTEM":"UTC","OBJECT_NAME":"STARLINK-6313","EPHEMERIS_TYPE":"0","BSTAR":"0.00001918900000","APOAPSIS":"356.229","TLE_LINE2":"2 56519  42.9978 224.9554 0001820 270.9190  89.1469 15.71362649  6936","ECCENTRICITY":"0.00018200","CENTER_NAME":"EARTH","LAUNCH_DATE":"2023-05-14","TLE_LINE1":"1 56519U 23065S   23170.56664583  .00002066  00000-0  19189-4 0  9994","SITE":"AFETR","MEAN_MOTION":"15.71362649","REF_FRAME":"TEME","SEMIMAJOR_AXIS":"6733.139","RCS_SIZE":"LARGE","NORAD_CAT_ID":"56519","MEAN_ANOMALY":"89.1469","OBJECT_TYPE":"PAYLOAD"},{"COUNTRY_CODE":"US","MEAN_ELEMENT_THEORY":"SGP4","PERIOD":"91.640","RA_OF_ASC_NODE":"224.9564","CLASSIFICATION_TYPE":"U","ARG_OF_PERICENTER":"250.3206","DECAY_DATE":null,"MEAN_MOTION_DDOT":"0.0000000000000","PERIAPSIS":"354.501","REV_AT_EPOCH":"693","ELEMENT_SET_NO":"999","INCLINATION":"42.9973","FILE":"3937509","EPOCH":"2023-06-19T13:36:25.245504","MEAN_MOTION_DOT":"0.00002870","OBJECT_ID":"2023-065T","BSTAR":"0.00002530800000","EPHEMERIS_TYPE":"0","GP_ID":"234322449","TIME_SYSTEM":"UTC","OBJECT_NAME":"STARLINK-6344","TLE_LINE2":"2 56520  42.9973 224.9564 0000737 250.3206 109.7583 15.71364999  6936","APOAPSIS":"355.493","SITE":"AFETR","LAUNCH_DATE":"2023-05-14","TLE_LINE1":"1 56520U 23065T   23170.56695886  .00002870  00000-0  25308-4 0  9999","ECCENTRICITY":"0.00007370","CENTER_NAME":"EARTH","SEMIMAJOR_AXIS":"6733.132","REF_FRAME":"TEME","MEAN_MOTION":"15.71364999","MEAN_ANOMALY":"109.7583","OBJECT_TYPE":"PAYLOAD","RCS_SIZE":"LARGE","NORAD_CAT_ID":"56520"}];
